[{"OBJECT_NAME":"YUNHAI-2 02E","OBJECT_ID":"2024-052E","EPOCH":"2026-03-09T23:04:08.218272","MEAN_MOTION":14.27923834,"ECCENTRICITY":0.00117453,"INCLINATION":50.0117,"RA_OF_ASC_NODE":23.2487,"ARG_OF_PERICENTER":69.3739,"MEAN_ANOMALY":290.8434,"EPHEMERIS_TYPE":0,"CLASSIFICATION_TYPE":"U","NORAD_CAT_ID":59284,"ELEMENT_SET_NO":999,"REV_AT_EPOCH":9275,"BSTAR":0.0001398659,"MEAN_MOTION_DOT":1.88e-6,"MEAN_MOTION_DDOT":0},{"OBJECT_NAME":"NOAA 16 DEB","OBJECT_ID":"2000-055FY","EPOCH":"2026-03-09T23:06:25.383456","MEAN_MOTION":14.2563163,"ECCENTRICITY":0.00260038,"INCLINATION":98.7428,"RA_OF_ASC_NODE":137.7568,"ARG_OF_PERICENTER":59.7199,"MEAN_ANOMALY":300.6549,"EPHEMERIS_TYPE":0,"CLASSIFICATION_TYPE":"U","NORAD_CAT_ID":41272,"ELEMENT_SET_NO":999,"REV_AT_EPOCH":52620,"BSTAR":0.0020467235,"MEAN_MOTION_DOT":4.825e-5,"MEAN_MOTION_DDOT":0}]
